[{"OBJECT_NAME":"STARLINK-36348","OBJECT_ID":"2026-034B","EPOCH":"2026-03-05T17:57:11.761056","MEAN_MOTION":15.80965124,"ECCENTRICITY":8.33e-5,"INCLINATION":53.1591,"RA_OF_ASC_NODE":231.1027,"ARG_OF_PERICENTER":63.9371,"MEAN_ANOMALY":296.1737,"EPHEMERIS_TYPE":0,"CLASSIFICATION_TYPE":"U","NORAD_CAT_ID":67851,"ELEMENT_SET_NO":999,"REV_AT_EPOCH":331,"BSTAR":0.0011207,"MEAN_MOTION_DOT":0.00227387,"MEAN_MOTION_DDOT":0},{"OBJECT_NAME":"STARLINK-36276","OBJECT_ID":"2026-034C","EPOCH":"2026-03-05T17:56:06.844416","MEAN_MOTION":15.80965579,"ECCENTRICITY":7.51e-5,"INCLINATION":53.1592,"RA_OF_ASC_NODE":231.0978,"ARG_OF_PERICENTER":41.1666,"MEAN_ANOMALY":318.9413,"EPHEMERIS_TYPE":0,"CLASSIFICATION_TYPE":"U","NORAD_CAT_ID":67852,"ELEMENT_SET_NO":999,"REV_AT_EPOCH":331,"BSTAR":0.0010845,"MEAN_MOTION_DOT":0.00219831,"MEAN_MOTION_DDOT":0},{"OBJECT_NAME":"STARLINK-36785","OBJECT_ID":"2026-034D","EPOCH":"2026-03-05T19:26:04.795872","MEAN_MOTION":15.80911357,"ECCENTRICITY":0.0001894,"INCLINATION":53.1593,"RA_OF_ASC_NODE":230.7756,"ARG_OF_PERICENTER":46.1051,"MEAN_ANOMALY":314.0128,"EPHEMERIS_TYPE":0,"CLASSIFICATION_TYPE":"U","NORAD_CAT_ID":67853,"ELEMENT_SET_NO":999,"REV_AT_EPOCH":332,"BSTAR":0.00068278,"MEAN_MOTION_DOT":0.00136455,"MEAN_MOTION_DDOT":0},{"OBJECT_NAME":"STARLINK-36608","OBJECT_ID":"2026-034E","EPOCH":"2026-03-05T19:24:59.582880","MEAN_MOTION":15.80924466,"ECCENTRICITY":6.67e-5,"INCLINATION":53.1595,"RA_OF_ASC_NODE":230.7707,"ARG_OF_PERICENTER":55.1015,"MEAN_ANOMALY":305.007,"EPHEMERIS_TYPE":0,"CLASSIFICATION_TYPE":"U","NORAD_CAT_ID":67854,"ELEMENT_SET_NO":999,"REV_AT_EPOCH":331,"BSTAR":0.00067792,"MEAN_MOTION_DOT":0.0013554,"MEAN_MOTION_DDOT":0},{"OBJECT_NAME":"STARLINK-36838","OBJECT_ID":"2026-034F","EPOCH":"2026-03-05T19:23:54.907296","MEAN_MOTION":15.80925589,"ECCENTRICITY":0.0001192,"INCLINATION":53.1594,"RA_OF_ASC_NODE":230.7654,"ARG_OF_PERICENTER":37.7557,"MEAN_ANOMALY":322.3549,"EPHEMERIS_TYPE":0,"CLASSIFICATION_TYPE":"U","NORAD_CAT_ID":67855,"ELEMENT_SET_NO":999,"REV_AT_EPOCH":332,"BSTAR":0.00082553,"MEAN_MOTION_DOT":0.001658,"MEAN_MOTION_DDOT":0},{"OBJECT_NAME":"STARLINK-36843","OBJECT_ID":"2026-034G","EPOCH":"2026-03-05T19:21:45.386784","MEAN_MOTION":15.8092326,"ECCENTRICITY":0.0001176,"INCLINATION":53.1593,"RA_OF_ASC_NODE":230.7557,"ARG_OF_PERICENTER":50.6879,"MEAN_ANOMALY":309.4248,"EPHEMERIS_TYPE":0,"CLASSIFICATION_TYPE":"U","NORAD_CAT_ID":67856,"ELEMENT_SET_NO":999,"REV_AT_EPOCH":332,"BSTAR":0.00074048,"MEAN_MOTION_DOT":0.00148327,"MEAN_MOTION_DDOT":0},{"OBJECT_NAME":"STARLINK-36828","OBJECT_ID":"2026-034H","EPOCH":"2026-03-05T19:22:50.191968","MEAN_MOTION":15.80939599,"ECCENTRICITY":0.0002068,"INCLINATION":53.1591,"RA_OF_ASC_NODE":230.7608,"ARG_OF_PERICENTER":29.0804,"MEAN_ANOMALY":331.0333,"EPHEMERIS_TYPE":0,"CLASSIFICATION_TYPE":"U","NORAD_CAT_ID":67857,"ELEMENT_SET_NO":999,"REV_AT_EPOCH":332,"BSTAR":0.00097667,"MEAN_MOTION_DOT":0.00197138,"MEAN_MOTION_DDOT":0},{"OBJECT_NAME":"STARLINK-36837","OBJECT_ID":"2026-034J","EPOCH":"2026-03-05T19:20:40.504704","MEAN_MOTION":15.80927956,"ECCENTRICITY":0.0001112,"INCLINATION":53.1595,"RA_OF_ASC_NODE":230.7497,"ARG_OF_PERICENTER":54.1342,"MEAN_ANOMALY":305.9784,"EPHEMERIS_TYPE":0,"CLASSIFICATION_TYPE":"U","NORAD_CAT_ID":67858,"ELEMENT_SET_NO":999,"REV_AT_EPOCH":332,"BSTAR":0.00079115,"MEAN_MOTION_DOT":0.00158752,"MEAN_MOTION_DDOT":0},{"OBJECT_NAME":"STARLINK-36393","OBJECT_ID":"2026-034K","EPOCH":"2026-03-05T19:19:35.575104","MEAN_MOTION":15.80927892,"ECCENTRICITY":8.0e-5,"INCLINATION":53.1595,"RA_OF_ASC_NODE":230.7445,"ARG_OF_PERICENTER":80.4461,"MEAN_ANOMALY":279.6652,"EPHEMERIS_TYPE":0,"CLASSIFICATION_TYPE":"U","NORAD_CAT_ID":67859,"ELEMENT_SET_NO":999,"REV_AT_EPOCH":332,"BSTAR":0.00071878,"MEAN_MOTION_DOT":0.00143915,"MEAN_MOTION_DDOT":0},{"OBJECT_NAME":"STARLINK-35873","OBJECT_ID":"2026-034L","EPOCH":"2026-03-05T19:18:30.693888","MEAN_MOTION":15.80942848,"ECCENTRICITY":9.49e-5,"INCLINATION":53.1594,"RA_OF_ASC_NODE":230.7394,"ARG_OF_PERICENTER":41.9266,"MEAN_ANOMALY":318.183,"EPHEMERIS_TYPE":0,"CLASSIFICATION_TYPE":"U","NORAD_CAT_ID":67860,"ELEMENT_SET_NO":999,"REV_AT_EPOCH":335,"BSTAR":0.0008651,"MEAN_MOTION_DOT":0.00174088,"MEAN_MOTION_DDOT":0},{"OBJECT_NAME":"STARLINK-36325","OBJECT_ID":"2026-034M","EPOCH":"2026-03-05T19:17:26.078784","MEAN_MOTION":15.80911152,"ECCENTRICITY":0.0001371,"INCLINATION":53.1597,"RA_OF_ASC_NODE":230.7342,"ARG_OF_PERICENTER":39.2945,"MEAN_ANOMALY":320.8177,"EPHEMERIS_TYPE":0,"CLASSIFICATION_TYPE":"U","NORAD_CAT_ID":67861,"ELEMENT_SET_NO":999,"REV_AT_EPOCH":332,"BSTAR":0.00061914,"MEAN_MOTION_DOT":0.00123479,"MEAN_MOTION_DDOT":0},{"OBJECT_NAME":"STARLINK-36332","OBJECT_ID":"2026-034N","EPOCH":"2026-03-05T17:45:18.931680","MEAN_MOTION":15.80962347,"ECCENTRICITY":0.0001093,"INCLINATION":53.1592,"RA_OF_ASC_NODE":231.0463,"ARG_OF_PERICENTER":39.0156,"MEAN_ANOMALY":321.0946,"EPHEMERIS_TYPE":0,"CLASSIFICATION_TYPE":"U","NORAD_CAT_ID":67862,"ELEMENT_SET_NO":999,"REV_AT_EPOCH":331,"BSTAR":0.001141,"MEAN_MOTION_DOT":0.00231592,"MEAN_MOTION_DDOT":0},{"OBJECT_NAME":"STARLINK-36835","OBJECT_ID":"2026-034P","EPOCH":"2026-03-05T19:15:16.311168","MEAN_MOTION":15.80952869,"ECCENTRICITY":0.0001161,"INCLINATION":53.1597,"RA_OF_ASC_NODE":230.7233,"ARG_OF_PERICENTER":58.3348,"MEAN_ANOMALY":301.7788,"EPHEMERIS_TYPE":0,"CLASSIFICATION_TYPE":"U","NORAD_CAT_ID":67863,"ELEMENT_SET_NO":999,"REV_AT_EPOCH":332,"BSTAR":0.0010416,"MEAN_MOTION_DOT":0.00210738,"MEAN_MOTION_DDOT":0},{"OBJECT_NAME":"STARLINK-36831","OBJECT_ID":"2026-034Q","EPOCH":"2026-03-05T19:14:11.734944","MEAN_MOTION":15.8090859,"ECCENTRICITY":0.0003746,"INCLINATION":53.1591,"RA_OF_ASC_NODE":230.7186,"ARG_OF_PERICENTER":14.522,"MEAN_ANOMALY":345.591,"EPHEMERIS_TYPE":0,"CLASSIFICATION_TYPE":"U","NORAD_CAT_ID":67864,"ELEMENT_SET_NO":999,"REV_AT_EPOCH":332,"BSTAR":0.00082477,"MEAN_MOTION_DOT":0.00165559,"MEAN_MOTION_DDOT":0},{"OBJECT_NAME":"STARLINK-36738","OBJECT_ID":"2026-034R","EPOCH":"2026-03-05T19:13:06.826944","MEAN_MOTION":15.80904076,"ECCENTRICITY":7.18e-5,"INCLINATION":53.1596,"RA_OF_ASC_NODE":230.7133,"ARG_OF_PERICENTER":91.4938,"MEAN_ANOMALY":268.6167,"EPHEMERIS_TYPE":0,"CLASSIFICATION_TYPE":"U","NORAD_CAT_ID":67865,"ELEMENT_SET_NO":999,"REV_AT_EPOCH":332,"BSTAR":0.00052971,"MEAN_MOTION_DOT":0.00105282,"MEAN_MOTION_DDOT":0},{"OBJECT_NAME":"STARLINK-36780","OBJECT_ID":"2026-034S","EPOCH":"2026-03-05T19:12:01.894752","MEAN_MOTION":15.80927599,"ECCENTRICITY":0.0001168,"INCLINATION":53.1598,"RA_OF_ASC_NODE":230.7072,"ARG_OF_PERICENTER":37.1436,"MEAN_ANOMALY":322.9667,"EPHEMERIS_TYPE":0,"CLASSIFICATION_TYPE":"U","NORAD_CAT_ID":67866,"ELEMENT_SET_NO":999,"REV_AT_EPOCH":332,"BSTAR":0.00073941,"MEAN_MOTION_DOT":0.00148137,"MEAN_MOTION_DDOT":0},{"OBJECT_NAME":"STARLINK-36761","OBJECT_ID":"2026-034T","EPOCH":"2026-03-05T20:00:00.999360","MEAN_MOTION":15.80821095,"ECCENTRICITY":0.0001059,"INCLINATION":53.1599,"RA_OF_ASC_NODE":230.5327,"ARG_OF_PERICENTER":61.7078,"MEAN_ANOMALY":132.4522,"EPHEMERIS_TYPE":0,"CLASSIFICATION_TYPE":"U","NORAD_CAT_ID":67867,"ELEMENT_SET_NO":999,"REV_AT_EPOCH":324,"BSTAR":0.00045805,"MEAN_MOTION_DOT":0.00090439,"MEAN_MOTION_DDOT":0}]
